PATHFINDER 1            
1 41787U 16059E   26094.23077693  .00001305  00000+0  23655-3 0  9998
2 41787  97.8183  96.8472 0029972  82.5339 277.9270 14.67568365508862
SCATSAT 1               
1 41790U 16059H   26094.15435333  .00003036  00000+0  40426-3 0  9990
2 41790  98.1249 157.1457 0056001 126.0523 234.5895 14.79357756 90646
GOKTURK 1A              
1 41875U 16073A   26094.30137891  .00001084  00000+0  22171-3 0  9993
2 41875  98.1333 350.1030 0001368  79.9755 280.1601 14.62779017498021
RESOURCESAT-2A          
1 41877U 16074A   26094.31001800  .00000400  00000+0  20246-3 0  9999
2 41877  98.7565 168.4071 0001114 313.2205  46.8879 14.21612027483800
CARTOSAT-2D             
1 41948U 17008A   26092.15239628  .00000233  00000+0  14239-4 0  9997
2 41948  97.4190 152.8466 0005833 141.2675 218.8979 15.19319362506033
SENTINEL-2B             
1 42063U 17013A   26094.22148383  .00000112  00000+0  59472-4 0  9993
2 42063  98.5674 170.0492 0001196  95.4049 264.7270 14.30817234474069
CARTOSAT-2E             
1 42767U 17036C   26094.07949478  .00000171  00000+0  11289-4 0  9995
2 42767  97.4351 155.0745 0003524 187.0173 173.1013 15.19322722486890
FORMOSAT-5              
1 42920U 17049A   26094.26023846  .00000382  00000+0  10836-3 0  9993
2 42920  98.2276 171.2082 0010660 317.8977  42.1398 14.50710310455956
SENTINEL-5P             
1 42969U 17064A   26094.26172763  .00000130  00000+0  82677-4 0  9990
2 42969  98.7918  36.9257 0001227  89.3617 270.7699 14.19505957439071
SKYSAT-C11              
1 42987U 17068A   26094.29294748  .00045952  00000+0  70571-3 0  9995
2 42987  97.4253 240.1675 0000539 161.9909 198.1364 15.54142592471753
SKYSAT-C10              
1 42988U 17068B   26093.92777451  .00019021  00000+0  59243-3 0  9993
2 42988  97.4388 230.1765 0001027 109.3391 250.7962 15.33318506470975
SKYSAT-C9               
1 42989U 17068C   26093.93578308  .00025496  00000+0  64426-3 0  9997
2 42989  97.4313 230.4389 0009405  51.3646 308.8440 15.39745751471324
SKYSAT-C8               
1 42990U 17068D   26093.94248882  .00020789  00000+0  60444-3 0  9997
2 42990  97.4405 229.7181 0001096  94.1581 265.9787 15.35479517470911
SKYSAT-C7               
1 42991U 17068E   26093.93336283  .00020999  00000+0  61114-3 0  9998
2 42991  97.4417 230.6932 0006284  25.3448 334.8103 15.35429484470974
SKYSAT-C6               
1 42992U 17068F   26094.29317000  .00018066  00000+0  56580-3 0  9998
2 42992  97.4453 231.2652 0003544  64.8325 295.3284 15.33149378470991
CARTOSAT-2F             
1 43111U 18004A   26094.30901802  .00008880  00000+0  42455-3 0  9993
2 43111  97.4106 154.9993 0001878 132.4638 227.6755 15.19229157456113
