[{"OBJECT_NAME":"PATHFINDER 1","OBJECT_ID":"2016-059E","EPOCH":"2026-04-04T05:32:19.126752","MEAN_MOTION":14.67568365,"ECCENTRICITY":0.00299723,"INCLINATION":97.8183,"RA_OF_ASC_NODE":96.8472,"ARG_OF_PERICENTER":82.5339,"MEAN_ANOMALY":277.927,"EPHEMERIS_TYPE":0,"CLASSIFICATION_TYPE":"U","NORAD_CAT_ID":41787,"ELEMENT_SET_NO":999,"REV_AT_EPOCH":50886,"BSTAR":0.00023654964,"MEAN_MOTION_DOT":1.305e-5,"MEAN_MOTION_DDOT":0},{"OBJECT_NAME":"SCATSAT 1","OBJECT_ID":"2016-059H","EPOCH":"2026-04-04T03:42:16.127712","MEAN_MOTION":14.79357756,"ECCENTRICITY":0.00560014,"INCLINATION":98.1249,"RA_OF_ASC_NODE":157.1457,"ARG_OF_PERICENTER":126.0523,"MEAN_ANOMALY":234.5895,"EPHEMERIS_TYPE":0,"CLASSIFICATION_TYPE":"U","NORAD_CAT_ID":41790,"ELEMENT_SET_NO":999,"REV_AT_EPOCH":9064,"BSTAR":0.000404261,"MEAN_MOTION_DOT":3.036e-5,"MEAN_MOTION_DDOT":0},{"OBJECT_NAME":"GOKTURK 1A","OBJECT_ID":"2016-073A","EPOCH":"2026-04-04T07:13:59.137824","MEAN_MOTION":14.62779017,"ECCENTRICITY":0.00013682,"INCLINATION":98.1333,"RA_OF_ASC_NODE":350.103,"ARG_OF_PERICENTER":79.9755,"MEAN_ANOMALY":280.1601,"EPHEMERIS_TYPE":0,"CLASSIFICATION_TYPE":"U","NORAD_CAT_ID":41875,"ELEMENT_SET_NO":999,"REV_AT_EPOCH":49802,"BSTAR":0.00022170932,"MEAN_MOTION_DOT":1.084e-5,"MEAN_MOTION_DDOT":0},{"OBJECT_NAME":"RESOURCESAT-2A","OBJECT_ID":"2016-074A","EPOCH":"2026-04-04T07:26:25.555200","MEAN_MOTION":14.21612027,"ECCENTRICITY":0.00011149,"INCLINATION":98.7565,"RA_OF_ASC_NODE":168.4071,"ARG_OF_PERICENTER":313.2205,"MEAN_ANOMALY":46.8879,"EPHEMERIS_TYPE":0,"CLASSIFICATION_TYPE":"U","NORAD_CAT_ID":41877,"ELEMENT_SET_NO":999,"REV_AT_EPOCH":48380,"BSTAR":0.00020245534,"MEAN_MOTION_DOT":4.0e-6,"MEAN_MOTION_DDOT":0},{"OBJECT_NAME":"CARTOSAT-2D","OBJECT_ID":"2017-008A","EPOCH":"2026-04-02T03:39:27.038592","MEAN_MOTION":15.19319362,"ECCENTRICITY":0.00058333,"INCLINATION":97.419,"RA_OF_ASC_NODE":152.8466,"ARG_OF_PERICENTER":141.2675,"MEAN_ANOMALY":218.8979,"EPHEMERIS_TYPE":0,"CLASSIFICATION_TYPE":"U","NORAD_CAT_ID":41948,"ELEMENT_SET_NO":999,"REV_AT_EPOCH":50603,"BSTAR":1.4238816e-5,"MEAN_MOTION_DOT":2.33e-6,"MEAN_MOTION_DDOT":0},{"OBJECT_NAME":"SENTINEL-2B","OBJECT_ID":"2017-013A","EPOCH":"2026-04-04T05:18:56.202912","MEAN_MOTION":14.30817234,"ECCENTRICITY":0.0001196,"INCLINATION":98.5674,"RA_OF_ASC_NODE":170.0492,"ARG_OF_PERICENTER":95.4049,"MEAN_ANOMALY":264.727,"EPHEMERIS_TYPE":0,"CLASSIFICATION_TYPE":"U","NORAD_CAT_ID":42063,"ELEMENT_SET_NO":999,"REV_AT_EPOCH":47406,"BSTAR":5.9471604e-5,"MEAN_MOTION_DOT":1.12e-6,"MEAN_MOTION_DDOT":0},{"OBJECT_NAME":"CARTOSAT-2E","OBJECT_ID":"2017-036C","EPOCH":"2026-04-04T01:54:28.348992","MEAN_MOTION":15.19322722,"ECCENTRICITY":0.00035241,"INCLINATION":97.4351,"RA_OF_ASC_NODE":155.0745,"ARG_OF_PERICENTER":187.0173,"MEAN_ANOMALY":173.1013,"EPHEMERIS_TYPE":0,"CLASSIFICATION_TYPE":"U","NORAD_CAT_ID":42767,"ELEMENT_SET_NO":999,"REV_AT_EPOCH":48689,"BSTAR":1.128853e-5,"MEAN_MOTION_DOT":1.71e-6,"MEAN_MOTION_DDOT":0},{"OBJECT_NAME":"FORMOSAT-5","OBJECT_ID":"2017-049A","EPOCH":"2026-04-04T06:14:44.602944","MEAN_MOTION":14.5071031,"ECCENTRICITY":0.001066,"INCLINATION":98.2276,"RA_OF_ASC_NODE":171.2082,"ARG_OF_PERICENTER":317.8977,"MEAN_ANOMALY":42.1398,"EPHEMERIS_TYPE":0,"CLASSIFICATION_TYPE":"U","NORAD_CAT_ID":42920,"ELEMENT_SET_NO":999,"REV_AT_EPOCH":45595,"BSTAR":0.0001083607,"MEAN_MOTION_DOT":3.82e-6,"MEAN_MOTION_DDOT":0},{"OBJECT_NAME":"SENTINEL-5P","OBJECT_ID":"2017-064A","EPOCH":"2026-04-04T06:16:53.267232","MEAN_MOTION":14.19505957,"ECCENTRICITY":0.00012275,"INCLINATION":98.7918,"RA_OF_ASC_NODE":36.9257,"ARG_OF_PERICENTER":89.3617,"MEAN_ANOMALY":270.7699,"EPHEMERIS_TYPE":0,"CLASSIFICATION_TYPE":"U","NORAD_CAT_ID":42969,"ELEMENT_SET_NO":999,"REV_AT_EPOCH":43907,"BSTAR":8.2676855e-5,"MEAN_MOTION_DOT":1.3e-6,"MEAN_MOTION_DDOT":0},{"OBJECT_NAME":"SKYSAT-C11","OBJECT_ID":"2017-068A","EPOCH":"2026-04-04T07:01:50.662272","MEAN_MOTION":15.54142592,"ECCENTRICITY":5.393e-5,"INCLINATION":97.4253,"RA_OF_ASC_NODE":240.1675,"ARG_OF_PERICENTER":161.9909,"MEAN_ANOMALY":198.1364,"EPHEMERIS_TYPE":0,"CLASSIFICATION_TYPE":"U","NORAD_CAT_ID":42987,"ELEMENT_SET_NO":999,"REV_AT_EPOCH":47175,"BSTAR":0.00070571131,"MEAN_MOTION_DOT":0.00045952,"MEAN_MOTION_DDOT":0},{"OBJECT_NAME":"SKYSAT-C10","OBJECT_ID":"2017-068B","EPOCH":"2026-04-03T22:15:59.717664","MEAN_MOTION":15.33318506,"ECCENTRICITY":0.00010271,"INCLINATION":97.4388,"RA_OF_ASC_NODE":230.1765,"ARG_OF_PERICENTER":109.3391,"MEAN_ANOMALY":250.7962,"EPHEMERIS_TYPE":0,"CLASSIFICATION_TYPE":"U","NORAD_CAT_ID":42988,"ELEMENT_SET_NO":999,"REV_AT_EPOCH":47097,"BSTAR":0.0005924278,"MEAN_MOTION_DOT":0.00019021,"MEAN_MOTION_DDOT":0},{"OBJECT_NAME":"SKYSAT-C9","OBJECT_ID":"2017-068C","EPOCH":"2026-04-03T22:27:31.658112","MEAN_MOTION":15.39745751,"ECCENTRICITY":0.0009405,"INCLINATION":97.4313,"RA_OF_ASC_NODE":230.4389,"ARG_OF_PERICENTER":51.3646,"MEAN_ANOMALY":308.844,"EPHEMERIS_TYPE":0,"CLASSIFICATION_TYPE":"U","NORAD_CAT_ID":42989,"ELEMENT_SET_NO":999,"REV_AT_EPOCH":47132,"BSTAR":0.00064425784,"MEAN_MOTION_DOT":0.00025496,"MEAN_MOTION_DDOT":0},{"OBJECT_NAME":"SKYSAT-C8","OBJECT_ID":"2017-068D","EPOCH":"2026-04-03T22:37:11.034048","MEAN_MOTION":15.35479517,"ECCENTRICITY":0.00010965,"INCLINATION":97.4405,"RA_OF_ASC_NODE":229.7181,"ARG_OF_PERICENTER":94.1581,"MEAN_ANOMALY":265.9787,"EPHEMERIS_TYPE":0,"CLASSIFICATION_TYPE":"U","NORAD_CAT_ID":42990,"ELEMENT_SET_NO":999,"REV_AT_EPOCH":47091,"BSTAR":0.00060443738,"MEAN_MOTION_DOT":0.00020789,"MEAN_MOTION_DDOT":0},{"OBJECT_NAME":"SKYSAT-C7","OBJECT_ID":"2017-068E","EPOCH":"2026-04-03T22:24:02.548512","MEAN_MOTION":15.35429484,"ECCENTRICITY":0.00062845,"INCLINATION":97.4417,"RA_OF_ASC_NODE":230.6932,"ARG_OF_PERICENTER":25.3448,"MEAN_ANOMALY":334.8103,"EPHEMERIS_TYPE":0,"CLASSIFICATION_TYPE":"U","NORAD_CAT_ID":42991,"ELEMENT_SET_NO":999,"REV_AT_EPOCH":47097,"BSTAR":0.00061113589,"MEAN_MOTION_DOT":0.00020999,"MEAN_MOTION_DDOT":0},{"OBJECT_NAME":"SKYSAT-C6","OBJECT_ID":"2017-068F","EPOCH":"2026-04-04T07:02:09.888000","MEAN_MOTION":15.33149378,"ECCENTRICITY":0.00035446,"INCLINATION":97.4453,"RA_OF_ASC_NODE":231.2652,"ARG_OF_PERICENTER":64.8325,"MEAN_ANOMALY":295.3284,"EPHEMERIS_TYPE":0,"CLASSIFICATION_TYPE":"U","NORAD_CAT_ID":42992,"ELEMENT_SET_NO":999,"REV_AT_EPOCH":47099,"BSTAR":0.00056579586,"MEAN_MOTION_DOT":0.00018066,"MEAN_MOTION_DDOT":0},{"OBJECT_NAME":"CARTOSAT-2F","OBJECT_ID":"2018-004A","EPOCH":"2026-04-04T07:24:59.156928","MEAN_MOTION":15.19229157,"ECCENTRICITY":0.00018783,"INCLINATION":97.4106,"RA_OF_ASC_NODE":154.9993,"ARG_OF_PERICENTER":132.4638,"MEAN_ANOMALY":227.6755,"EPHEMERIS_TYPE":0,"CLASSIFICATION_TYPE":"U","NORAD_CAT_ID":43111,"ELEMENT_SET_NO":999,"REV_AT_EPOCH":45611,"BSTAR":0.00042454517,"MEAN_MOTION_DOT":8.88e-5,"MEAN_MOTION_DDOT":0}]
